[{"OBJECT_NAME":"STARLINK-31241","OBJECT_ID":"2024-038Y","EPOCH":"2026-03-09T06:50:17.272032","MEAN_MOTION":15.27585159,"ECCENTRICITY":0.00016136,"INCLINATION":43.003,"RA_OF_ASC_NODE":26.0795,"ARG_OF_PERICENTER":256.1109,"MEAN_ANOMALY":103.9563,"EPHEMERIS_TYPE":0,"CLASSIFICATION_TYPE":"U","NORAD_CAT_ID":59045,"ELEMENT_SET_NO":999,"REV_AT_EPOCH":11479,"BSTAR":4.3845794e-5,"MEAN_MOTION_DOT":9.45e-6,"MEAN_MOTION_DDOT":0},{"OBJECT_NAME":"FLOCK 4G-22","OBJECT_ID":"2025-009AN","EPOCH":"2026-03-09T22:51:40.689792","MEAN_MOTION":15.2720903,"ECCENTRICITY":8.959e-5,"INCLINATION":97.4046,"RA_OF_ASC_NODE":151.5884,"ARG_OF_PERICENTER":284.1963,"MEAN_ANOMALY":75.9176,"EPHEMERIS_TYPE":0,"CLASSIFICATION_TYPE":"U","NORAD_CAT_ID":62645,"ELEMENT_SET_NO":999,"REV_AT_EPOCH":6376,"BSTAR":0.00049035383,"MEAN_MOTION_DOT":0.00013013,"MEAN_MOTION_DDOT":0}]
